GLOBALSTAR M063         
1 26081U 00008A   24344.90242479 -.00000005  00000+0  11438-2 0  9993
2 26081  51.9949 250.0795 0004583 320.6950 136.1648 11.86166105135114
GLOBALSTAR M062         
1 26082U 00008B   24344.90275712 -.00000071  00000+0  19673-3 0  9993
2 26082  51.9857 292.4064 0007513  66.0463 356.1026 12.43453154473079
GLOBALSTAR M060         
1 26083U 00008C   24344.92410441  .00000040  00000+0  13012-2 0  9991
2 26083  52.0004 225.5765 0004427  91.9058 281.2295 12.17650584129317
GLOBALSTAR M064         
1 26084U 00008D   24344.33042594 -.00000063  00000+0  28128-3 0  9998
2 26084  52.0053 352.6508 0001634  53.9439 306.1545 11.88526175144527
GLOBALSTAR M065         
1 31571U 07020A   24344.87520684  .00000069  00000+0  96429-3 0  9990
2 31571  51.9898  82.4650 0009741 241.7785 264.7686 12.61982901809802
GLOBALSTAR M069         
1 31573U 07020C   24344.93794029 -.00000056  00000+0  28572-3 0  9996
2 31573  51.9969  41.4136 0000972 126.5180  45.2198 12.53306551810582
GLOBALSTAR M072         
1 31574U 07020D   24344.85901925 -.00000082  00000+0  11109-3 0  9990
2 31574  52.0060 139.4454 0001260  99.2218  49.7723 12.34773426808822
GLOBALSTAR M071         
1 31576U 07020F   24344.88865829 -.00000050  00000+0  31451-3 0  9994
2 31576  52.0086  43.5361 0000510  76.1446  94.9174 12.56567610471826
